<?xml version='1.0' encoding='UTF-8' standalone='yes' ?>
<gpx version="1.1" creator="OsmAndRouterV2" xmlns="http://www.topografix.com/GPX/1/1" xmlns:osmand="https://osmand.net/docs/technical/osmand-file-formats/osmand-gpx" xmlns:gpxtpx="https://www8.garmin.com/xmlschemas/TrackPointExtensionv1.xsd" xmlns:xsi="http://www.w3.org/2001/XMLSchema-instance" xsi:schemaLocation="http://www.topografix.com/GPX/1/1 https://www.topografix.com/GPX/1/1/gpx.xsd">
  <metadata>
    <name>2026-06-15 Car 8.53 km</name>
  </metadata>
  <rte>
    <rtept lat="-31.781294" lon="-52.324077">
      <extensions>
        <osmand:profile>car</osmand:profile>
        <osmand:trkpt_idx>0</osmand:trkpt_idx>
      </extensions>
    </rtept>
    <rtept lat="-31.779621" lon="-52.332114">
      <extensions>
        <osmand:profile>car</osmand:profile>
        <osmand:trkpt_idx>34</osmand:trkpt_idx>
      </extensions>
    </rtept>
    <rtept lat="-31.781094" lon="-52.335293">
      <extensions>
        <osmand:profile>car</osmand:profile>
        <osmand:trkpt_idx>44</osmand:trkpt_idx>
      </extensions>
    </rtept>
    <rtept lat="-31.7795729" lon="-52.3400197">
      <extensions>
        <osmand:profile>car</osmand:profile>
        <osmand:trkpt_idx>52</osmand:trkpt_idx>
      </extensions>
    </rtept>
    <rtept lat="-31.775863" lon="-52.3393">
      <extensions>
        <osmand:profile>car</osmand:profile>
        <osmand:trkpt_idx>65</osmand:trkpt_idx>
      </extensions>
    </rtept>
    <rtept lat="-31.77471" lon="-52.34253">
      <extensions>
        <osmand:profile>car</osmand:profile>
        <osmand:trkpt_idx>79</osmand:trkpt_idx>
      </extensions>
    </rtept>
    <rtept lat="-31.77364" lon="-52.34586">
      <extensions>
        <osmand:profile>car</osmand:profile>
        <osmand:trkpt_idx>90</osmand:trkpt_idx>
      </extensions>
    </rtept>
    <rtept lat="-31.77285" lon="-52.34832">
      <extensions>
        <osmand:profile>car</osmand:profile>
        <osmand:trkpt_idx>98</osmand:trkpt_idx>
      </extensions>
    </rtept>
    <rtept lat="-31.772049" lon="-52.3401613">
      <extensions>
        <osmand:profile>car</osmand:profile>
        <osmand:trkpt_idx>124</osmand:trkpt_idx>
      </extensions>
    </rtept>
    <rtept lat="-31.7730157" lon="-52.3369732">
      <extensions>
        <osmand:profile>car</osmand:profile>
        <osmand:trkpt_idx>131</osmand:trkpt_idx>
      </extensions>
    </rtept>
    <rtept lat="-31.775863" lon="-52.3393">
      <extensions>
        <osmand:profile>car</osmand:profile>
        <osmand:trkpt_idx>143</osmand:trkpt_idx>
      </extensions>
    </rtept>
    <rtept lat="-31.7799831" lon="-52.3396335">
      <extensions>
        <osmand:profile>car</osmand:profile>
        <osmand:trkpt_idx>157</osmand:trkpt_idx>
      </extensions>
    </rtept>
    <rtept lat="-31.781094" lon="-52.335293">
      <extensions>
        <osmand:profile>car</osmand:profile>
        <osmand:trkpt_idx>164</osmand:trkpt_idx>
      </extensions>
    </rtept>
    <rtept lat="-31.779621" lon="-52.332114">
      <extensions>
        <osmand:profile>car</osmand:profile>
        <osmand:trkpt_idx>174</osmand:trkpt_idx>
      </extensions>
    </rtept>
    <rtept lat="-31.781294" lon="-52.324077">
      <extensions>
        <osmand:profile>car</osmand:profile>
        <osmand:trkpt_idx>197</osmand:trkpt_idx>
      </extensions>
    </rtept>
  </rte>
  <trk>
    <trkseg>
      <trkpt lat="-31.781279" lon="-52.324078">
        <ele>8.2</ele>
      </trkpt>
      <trkpt lat="-31.781279" lon="-52.323666">
        <ele>8.8</ele>
      </trkpt>
      <trkpt lat="-31.780817" lon="-52.32369">
        <ele>7.5</ele>
      </trkpt>
      <trkpt lat="-31.780674" lon="-52.323692">
        <ele>7</ele>
      </trkpt>
      <trkpt lat="-31.780638" lon="-52.323696">
        <ele>6.8</ele>
      </trkpt>
      <trkpt lat="-31.780348" lon="-52.32371">
        <ele>5.8</ele>
      </trkpt>
      <trkpt lat="-31.780201" lon="-52.32375">
        <ele>5.2</ele>
      </trkpt>
      <trkpt lat="-31.780128" lon="-52.32381">
        <ele>5</ele>
      </trkpt>
      <trkpt lat="-31.780106" lon="-52.32379">
        <ele>5</ele>
      </trkpt>
      <trkpt lat="-31.780079" lon="-52.323784">
        <ele>5</ele>
      </trkpt>
      <trkpt lat="-31.780048" lon="-52.323788">
        <ele>5</ele>
      </trkpt>
      <trkpt lat="-31.780024" lon="-52.323803">
        <ele>5</ele>
      </trkpt>
      <trkpt lat="-31.780006" lon="-52.323826">
        <ele>5</ele>
      </trkpt>
      <trkpt lat="-31.779991" lon="-52.323856">
        <ele>5</ele>
      </trkpt>
      <trkpt lat="-31.779987" lon="-52.32389">
        <ele>5</ele>
      </trkpt>
      <trkpt lat="-31.779991" lon="-52.323917">
        <ele>5</ele>
      </trkpt>
      <trkpt lat="-31.780006" lon="-52.323948">
        <ele>5</ele>
      </trkpt>
      <trkpt lat="-31.780024" lon="-52.323967">
        <ele>5</ele>
      </trkpt>
      <trkpt lat="-31.780046" lon="-52.323982">
        <ele>5</ele>
      </trkpt>
      <trkpt lat="-31.780071" lon="-52.323986">
        <ele>5</ele>
      </trkpt>
      <trkpt lat="-31.780107" lon="-52.324036">
        <ele>5.2</ele>
      </trkpt>
      <trkpt lat="-31.780197" lon="-52.3242">
        <ele>6</ele>
      </trkpt>
      <trkpt lat="-31.780651" lon="-52.32601">
        <ele>2.9</ele>
      </trkpt>
      <trkpt lat="-31.780678" lon="-52.32613">
        <ele>2.8</ele>
      </trkpt>
      <trkpt lat="-31.780571" lon="-52.32653">
        <ele>3</ele>
      </trkpt>
      <trkpt lat="-31.780247" lon="-52.327564">
        <ele>5.5</ele>
      </trkpt>
      <trkpt lat="-31.779928" lon="-52.32864">
        <ele>7</ele>
      </trkpt>
      <trkpt lat="-31.779602" lon="-52.329697">
        <ele>6</ele>
      </trkpt>
      <trkpt lat="-31.77928" lon="-52.330803">
        <ele>5.6</ele>
      </trkpt>
      <trkpt lat="-31.77898" lon="-52.331905">
        <ele>5</ele>
      </trkpt>
      <trkpt lat="-31.779032" lon="-52.33193">
        <ele>5</ele>
      </trkpt>
      <trkpt lat="-31.779423" lon="-52.332085">
        <ele>5</ele>
      </trkpt>
      <trkpt lat="-31.779522" lon="-52.332123">
        <ele>5</ele>
      </trkpt>
      <trkpt lat="-31.779608" lon="-52.332157">
        <ele>5</ele>
      </trkpt>
      <trkpt lat="-31.779608" lon="-52.332157">
        <ele>5</ele>
      </trkpt>
      <trkpt lat="-31.779871" lon="-52.332264">
        <ele>5</ele>
      </trkpt>
      <trkpt lat="-31.780817" lon="-52.332657">
        <ele>5.2</ele>
      </trkpt>
      <trkpt lat="-31.781565" lon="-52.333008">
        <ele>5</ele>
      </trkpt>
      <trkpt lat="-31.78163" lon="-52.333035">
        <ele>5</ele>
      </trkpt>
      <trkpt lat="-31.781664" lon="-52.33339">
        <ele>5</ele>
      </trkpt>
      <trkpt lat="-31.781414" lon="-52.3342">
        <ele>7</ele>
      </trkpt>
      <trkpt lat="-31.78128" lon="-52.33465">
        <ele>8</ele>
      </trkpt>
      <trkpt lat="-31.781246" lon="-52.33476">
        <ele>8.5</ele>
      </trkpt>
      <trkpt lat="-31.781086" lon="-52.33529">
        <ele>8</ele>
      </trkpt>
      <trkpt lat="-31.781086" lon="-52.33529">
        <ele>8</ele>
      </trkpt>
      <trkpt lat="-31.781075" lon="-52.335327">
        <ele>8</ele>
      </trkpt>
      <trkpt lat="-31.780788" lon="-52.33625">
        <ele>7</ele>
      </trkpt>
      <trkpt lat="-31.780516" lon="-52.337154">
        <ele>7</ele>
      </trkpt>
      <trkpt lat="-31.780252" lon="-52.33806">
        <ele>7</ele>
      </trkpt>
      <trkpt lat="-31.779974" lon="-52.338974">
        <ele>7</ele>
      </trkpt>
      <trkpt lat="-31.779696" lon="-52.3399">
        <ele>7</ele>
      </trkpt>
      <trkpt lat="-31.779648" lon="-52.340054">
        <ele>7.1</ele>
      </trkpt>
      <trkpt lat="-31.779648" lon="-52.340054">
        <ele>7.1</ele>
      </trkpt>
      <trkpt lat="-31.779518" lon="-52.34046">
        <ele>7.3</ele>
      </trkpt>
      <trkpt lat="-31.779415" lon="-52.340786">
        <ele>7</ele>
      </trkpt>
      <trkpt lat="-31.779325" lon="-52.34075">
        <ele>7</ele>
      </trkpt>
      <trkpt lat="-31.778484" lon="-52.34041">
        <ele>7</ele>
      </trkpt>
      <trkpt lat="-31.77757" lon="-52.34001">
        <ele>7</ele>
      </trkpt>
      <trkpt lat="-31.776707" lon="-52.339657">
        <ele>7</ele>
      </trkpt>
      <trkpt lat="-31.776663" lon="-52.339638">
        <ele>7</ele>
      </trkpt>
      <trkpt lat="-31.776592" lon="-52.339607">
        <ele>7</ele>
      </trkpt>
      <trkpt lat="-31.776209" lon="-52.339447">
        <ele>6.8</ele>
      </trkpt>
      <trkpt lat="-31.77614" lon="-52.33942">
        <ele>6.7</ele>
      </trkpt>
      <trkpt lat="-31.775867" lon="-52.339306">
        <ele>6.6</ele>
      </trkpt>
      <trkpt lat="-31.775862" lon="-52.339302">
        <ele>6.6</ele>
      </trkpt>
      <trkpt lat="-31.775862" lon="-52.339302">
        <ele>6.6</ele>
      </trkpt>
      <trkpt lat="-31.77571" lon="-52.339237">
        <ele>7.3</ele>
      </trkpt>
      <trkpt lat="-31.77567" lon="-52.339367">
        <ele>7.3</ele>
      </trkpt>
      <trkpt lat="-31.775406" lon="-52.340233">
        <ele>7.5</ele>
      </trkpt>
      <trkpt lat="-31.775387" lon="-52.340294">
        <ele>7.7</ele>
      </trkpt>
      <trkpt lat="-31.775368" lon="-52.340355">
        <ele>7.9</ele>
      </trkpt>
      <trkpt lat="-31.77517" lon="-52.341003">
        <ele>10</ele>
      </trkpt>
      <trkpt lat="-31.77514" lon="-52.341103">
        <ele>10.2</ele>
      </trkpt>
      <trkpt lat="-31.77512" lon="-52.341167">
        <ele>10.5</ele>
      </trkpt>
      <trkpt lat="-31.774916" lon="-52.341816">
        <ele>11.8</ele>
      </trkpt>
      <trkpt lat="-31.774878" lon="-52.341934">
        <ele>12.2</ele>
      </trkpt>
      <trkpt lat="-31.774855" lon="-52.34201">
        <ele>12.5</ele>
      </trkpt>
      <trkpt lat="-31.774822" lon="-52.342113">
        <ele>12.5</ele>
      </trkpt>
      <trkpt lat="-31.774694" lon="-52.34252">
        <ele>12.4</ele>
      </trkpt>
      <trkpt lat="-31.774694" lon="-52.34252">
        <ele>12.4</ele>
      </trkpt>
      <trkpt lat="-31.774652" lon="-52.342655">
        <ele>12.4</ele>
      </trkpt>
      <trkpt lat="-31.77431" lon="-52.343723">
        <ele>12.2</ele>
      </trkpt>
      <trkpt lat="-31.774294" lon="-52.343777">
        <ele>12</ele>
      </trkpt>
      <trkpt lat="-31.774279" lon="-52.34383">
        <ele>11.8</ele>
      </trkpt>
      <trkpt lat="-31.774021" lon="-52.344673">
        <ele>11.2</ele>
      </trkpt>
      <trkpt lat="-31.773993" lon="-52.34476">
        <ele>11.1</ele>
      </trkpt>
      <trkpt lat="-31.773966" lon="-52.344852">
        <ele>10.9</ele>
      </trkpt>
      <trkpt lat="-31.773678" lon="-52.3458">
        <ele>9</ele>
      </trkpt>
      <trkpt lat="-31.773657" lon="-52.345867">
        <ele>9</ele>
      </trkpt>
      <trkpt lat="-31.77364" lon="-52.34586">
        <ele>9.1</ele>
      </trkpt>
      <trkpt lat="-31.77364" lon="-52.34586">
        <ele>9.1</ele>
      </trkpt>
      <trkpt lat="-31.772654" lon="-52.345467">
        <ele>12</ele>
      </trkpt>
      <trkpt lat="-31.772326" lon="-52.34654">
        <ele>9</ele>
      </trkpt>
      <trkpt lat="-31.771984" lon="-52.347637">
        <ele>8</ele>
      </trkpt>
      <trkpt lat="-31.77207" lon="-52.34767">
        <ele>8</ele>
      </trkpt>
      <trkpt lat="-31.772955" lon="-52.34807">
        <ele>7</ele>
      </trkpt>
      <trkpt lat="-31.772926" lon="-52.34816">
        <ele>7</ele>
      </trkpt>
      <trkpt lat="-31.772873" lon="-52.34833">
        <ele>6.9</ele>
      </trkpt>
      <trkpt lat="-31.772873" lon="-52.34833">
        <ele>6.9</ele>
      </trkpt>
      <trkpt lat="-31.772312" lon="-52.35014">
        <ele>6.1</ele>
      </trkpt>
      <trkpt lat="-31.77228" lon="-52.350246">
        <ele>6</ele>
      </trkpt>
      <trkpt lat="-31.771347" lon="-52.349884">
        <ele>6</ele>
      </trkpt>
      <trkpt lat="-31.771294" lon="-52.349865">
        <ele>6</ele>
      </trkpt>
      <trkpt lat="-31.77134" lon="-52.349712">
        <ele>6</ele>
      </trkpt>
      <trkpt lat="-31.77133" lon="-52.349613">
        <ele>6</ele>
      </trkpt>
      <trkpt lat="-31.771307" lon="-52.34955">
        <ele>6</ele>
      </trkpt>
      <trkpt lat="-31.771269" lon="-52.349495">
        <ele>6</ele>
      </trkpt>
      <trkpt lat="-31.7712" lon="-52.349457">
        <ele>6</ele>
      </trkpt>
      <trkpt lat="-31.770372" lon="-52.349052">
        <ele>8</ele>
      </trkpt>
      <trkpt lat="-31.769543" lon="-52.348686">
        <ele>7.5</ele>
      </trkpt>
      <trkpt lat="-31.769459" lon="-52.34865">
        <ele>8.1</ele>
      </trkpt>
      <trkpt lat="-31.76968" lon="-52.347923">
        <ele>8.4</ele>
      </trkpt>
      <trkpt lat="-31.770023" lon="-52.3468">
        <ele>8.8</ele>
      </trkpt>
      <trkpt lat="-31.77036" lon="-52.345695">
        <ele>12.8</ele>
      </trkpt>
      <trkpt lat="-31.770657" lon="-52.344612">
        <ele>14.5</ele>
      </trkpt>
      <trkpt lat="-31.770979" lon="-52.3436">
        <ele>14.2</ele>
      </trkpt>
      <trkpt lat="-31.771013" lon="-52.3435">
        <ele>14</ele>
      </trkpt>
      <trkpt lat="-31.77103" lon="-52.343437">
        <ele>14</ele>
      </trkpt>
      <trkpt lat="-31.771307" lon="-52.342503">
        <ele>14</ele>
      </trkpt>
      <trkpt lat="-31.771639" lon="-52.34142">
        <ele>14.6</ele>
      </trkpt>
      <trkpt lat="-31.771843" lon="-52.340763">
        <ele>15</ele>
      </trkpt>
      <trkpt lat="-31.771982" lon="-52.340298">
        <ele>13.8</ele>
      </trkpt>
      <trkpt lat="-31.771984" lon="-52.34029">
        <ele>13.7</ele>
      </trkpt>
      <trkpt lat="-31.772024" lon="-52.340153">
        <ele>13.5</ele>
      </trkpt>
      <trkpt lat="-31.772024" lon="-52.340153">
        <ele>13.5</ele>
      </trkpt>
      <trkpt lat="-31.772066" lon="-52.34001">
        <ele>13.3</ele>
      </trkpt>
      <trkpt lat="-31.772112" lon="-52.339848">
        <ele>13</ele>
      </trkpt>
      <trkpt lat="-31.772348" lon="-52.33907">
        <ele>11</ele>
      </trkpt>
      <trkpt lat="-31.772684" lon="-52.33798">
        <ele>8</ele>
      </trkpt>
      <trkpt lat="-31.772953" lon="-52.337112">
        <ele>8</ele>
      </trkpt>
      <trkpt lat="-31.772997" lon="-52.336964">
        <ele>7.7</ele>
      </trkpt>
      <trkpt lat="-31.772997" lon="-52.336964">
        <ele>7.7</ele>
      </trkpt>
      <trkpt lat="-31.773232" lon="-52.33619">
        <ele>5.4</ele>
      </trkpt>
      <trkpt lat="-31.773317" lon="-52.336227">
        <ele>5.5</ele>
      </trkpt>
      <trkpt lat="-31.773397" lon="-52.33626">
        <ele>5.8</ele>
      </trkpt>
      <trkpt lat="-31.774122" lon="-52.336548">
        <ele>8</ele>
      </trkpt>
      <trkpt lat="-31.774105" lon="-52.336613">
        <ele>8</ele>
      </trkpt>
      <trkpt lat="-31.77385" lon="-52.33749">
        <ele>8.6</ele>
      </trkpt>
      <trkpt lat="-31.773596" lon="-52.338257">
        <ele>9.1</ele>
      </trkpt>
      <trkpt lat="-31.773561" lon="-52.338356">
        <ele>7.8</ele>
      </trkpt>
      <trkpt lat="-31.774689" lon="-52.33883">
        <ele>7</ele>
      </trkpt>
      <trkpt lat="-31.77571" lon="-52.339237">
        <ele>6.5</ele>
      </trkpt>
      <trkpt lat="-31.775862" lon="-52.339302">
        <ele>6.6</ele>
      </trkpt>
      <trkpt lat="-31.775862" lon="-52.339302">
        <ele>6.6</ele>
      </trkpt>
      <trkpt lat="-31.775867" lon="-52.339306">
        <ele>6.6</ele>
      </trkpt>
      <trkpt lat="-31.77614" lon="-52.33942">
        <ele>6.7</ele>
      </trkpt>
      <trkpt lat="-31.776209" lon="-52.339447">
        <ele>6.8</ele>
      </trkpt>
      <trkpt lat="-31.776592" lon="-52.339607">
        <ele>7</ele>
      </trkpt>
      <trkpt lat="-31.776663" lon="-52.339638">
        <ele>7</ele>
      </trkpt>
      <trkpt lat="-31.776707" lon="-52.339657">
        <ele>7</ele>
      </trkpt>
      <trkpt lat="-31.77757" lon="-52.34001">
        <ele>7</ele>
      </trkpt>
      <trkpt lat="-31.778484" lon="-52.34041">
        <ele>7</ele>
      </trkpt>
      <trkpt lat="-31.779325" lon="-52.34075">
        <ele>7</ele>
      </trkpt>
      <trkpt lat="-31.779415" lon="-52.340786">
        <ele>7.5</ele>
      </trkpt>
      <trkpt lat="-31.779518" lon="-52.34046">
        <ele>7.3</ele>
      </trkpt>
      <trkpt lat="-31.779696" lon="-52.3399">
        <ele>7</ele>
      </trkpt>
      <trkpt lat="-31.779799" lon="-52.339558">
        <ele>7</ele>
      </trkpt>
      <trkpt lat="-31.779799" lon="-52.339558">
        <ele>7</ele>
      </trkpt>
      <trkpt lat="-31.779974" lon="-52.338974">
        <ele>7</ele>
      </trkpt>
      <trkpt lat="-31.780252" lon="-52.33806">
        <ele>7</ele>
      </trkpt>
      <trkpt lat="-31.780516" lon="-52.337154">
        <ele>7</ele>
      </trkpt>
      <trkpt lat="-31.780788" lon="-52.33625">
        <ele>7</ele>
      </trkpt>
      <trkpt lat="-31.781075" lon="-52.335327">
        <ele>8</ele>
      </trkpt>
      <trkpt lat="-31.781086" lon="-52.33529">
        <ele>8</ele>
      </trkpt>
      <trkpt lat="-31.781086" lon="-52.33529">
        <ele>8</ele>
      </trkpt>
      <trkpt lat="-31.781246" lon="-52.33476">
        <ele>8.5</ele>
      </trkpt>
      <trkpt lat="-31.78128" lon="-52.33465">
        <ele>8</ele>
      </trkpt>
      <trkpt lat="-31.781414" lon="-52.3342">
        <ele>7</ele>
      </trkpt>
      <trkpt lat="-31.781664" lon="-52.33339">
        <ele>4.8</ele>
      </trkpt>
      <trkpt lat="-31.78163" lon="-52.333035">
        <ele>5</ele>
      </trkpt>
      <trkpt lat="-31.781565" lon="-52.333008">
        <ele>5</ele>
      </trkpt>
      <trkpt lat="-31.780817" lon="-52.332657">
        <ele>5.2</ele>
      </trkpt>
      <trkpt lat="-31.779871" lon="-52.332264">
        <ele>5</ele>
      </trkpt>
      <trkpt lat="-31.779608" lon="-52.332157">
        <ele>5</ele>
      </trkpt>
      <trkpt lat="-31.779608" lon="-52.332157">
        <ele>5</ele>
      </trkpt>
      <trkpt lat="-31.779522" lon="-52.332123">
        <ele>5</ele>
      </trkpt>
      <trkpt lat="-31.779423" lon="-52.332085">
        <ele>5</ele>
      </trkpt>
      <trkpt lat="-31.779032" lon="-52.33193">
        <ele>5</ele>
      </trkpt>
      <trkpt lat="-31.77898" lon="-52.331905">
        <ele>5.2</ele>
      </trkpt>
      <trkpt lat="-31.77928" lon="-52.330803">
        <ele>5.6</ele>
      </trkpt>
      <trkpt lat="-31.779602" lon="-52.329697">
        <ele>6</ele>
      </trkpt>
      <trkpt lat="-31.779928" lon="-52.32864">
        <ele>7</ele>
      </trkpt>
      <trkpt lat="-31.780247" lon="-52.327564">
        <ele>5.5</ele>
      </trkpt>
      <trkpt lat="-31.780571" lon="-52.32653">
        <ele>3</ele>
      </trkpt>
      <trkpt lat="-31.780678" lon="-52.32613">
        <ele>2.8</ele>
      </trkpt>
      <trkpt lat="-31.780651" lon="-52.32601">
        <ele>2.9</ele>
      </trkpt>
      <trkpt lat="-31.780197" lon="-52.3242">
        <ele>6</ele>
      </trkpt>
      <trkpt lat="-31.780182" lon="-52.32406">
        <ele>6</ele>
      </trkpt>
      <trkpt lat="-31.78016" lon="-52.32389">
        <ele>5</ele>
      </trkpt>
      <trkpt lat="-31.780159" lon="-52.323864">
        <ele>5</ele>
      </trkpt>
      <trkpt lat="-31.780128" lon="-52.32381">
        <ele>5</ele>
      </trkpt>
      <trkpt lat="-31.780201" lon="-52.32375">
        <ele>5.2</ele>
      </trkpt>
      <trkpt lat="-31.780348" lon="-52.32371">
        <ele>5.8</ele>
      </trkpt>
      <trkpt lat="-31.780638" lon="-52.323696">
        <ele>6.8</ele>
      </trkpt>
      <trkpt lat="-31.780674" lon="-52.323692">
        <ele>7</ele>
      </trkpt>
      <trkpt lat="-31.780817" lon="-52.32369">
        <ele>7.5</ele>
      </trkpt>
      <trkpt lat="-31.781279" lon="-52.323666">
        <ele>9</ele>
      </trkpt>
      <trkpt lat="-31.781279" lon="-52.324078">
        <ele>8.2</ele>
      </trkpt>
    </trkseg>
  </trk>
</gpx>